window._tle = "PEGASUS\n1 42784U 17036V   21233.41524366  .00001701  00000-0  71511-4 0  9992\n2 42784  97.2455 280.3978 0009978 316.6629  43.3824 15.24696030231255";
